STARLINK-35286          
1 65803U 25218N   26078.17598961  .00003806  00000+0  26776-3 0  9996
2 65803  97.6033 302.2474 0001681  96.6821 263.4598 15.05656255 26399
STARLINK-35266          
1 65804U 25218P   26078.17045749  .00005527  00000+0  38688-3 0  9995
2 65804  97.6022 302.2569 0001823  83.5793 276.5641 15.05660497 26391
STARLINK-35273          
1 65805U 25218Q   26078.16768472  .00002844  00000+0  20120-3 0  9991
2 65805  97.6026 302.2604 0001639  90.5351 269.6064 15.05653754 26399
STARLINK-35047          
1 65806U 25218R   26078.15384537  .00003183  00000+0  22469-3 0  9992
2 65806  97.6031 302.2802 0002396  90.1386 270.0116 15.05654746 26397
STARLINK-35285          
1 65807U 25218S   26078.15938131  .00003837  00000+0  26994-3 0  9991
2 65807  97.6025 302.2723 0002094  86.1751 273.9715 15.05654854 26396
STARLINK-34580          
1 65808U 25218T   26078.21753257  .00002788  00000+0  19736-3 0  9993
2 65808  97.6031 302.3493 0001979  83.4398 276.7054 15.05654135 26408
STARLINK-35289          
1 65809U 25218U   26078.20922882  .00003094  00000+0  21855-3 0  9991
2 65809  97.6029 302.3608 0002545  87.8920 272.2599 15.05654079 26405
STARLINK-35268          
1 65810U 25218V   26078.20092593  .00004363  00000+0  30644-3 0  9996
2 65810  97.6026 302.3719 0002446  83.0481 277.1024 15.05645174 26400
STARLINK-35224          
1 65811U 25218W   26078.20368908  .00001217  00000+0  88509-4 0  9992
2 65811  97.6025 302.3676 0003317  87.1288 273.0318 15.05649798 26407
STARLINK-35271          
1 65812U 25218X   26078.19261533  .00002659  00000+0  18839-3 0  9996
2 65812  97.6013 302.3825 0001810  87.2585 272.8849 15.05653088 26401
STARLINK-35215          
1 65813U 25218Y   26078.18706889 -.00001223  00000+0 -80581-4 0  9996
2 65813  97.6010 302.3890 0001816  87.7895 272.3540 15.05649462 26400
STARLINK-35157          
1 65814U 25218Z   26078.18431949 -.00007380  00000+0 -50844-3 0  9997
2 65814  97.6009 302.3930 0001194  92.0947 268.0416 15.05604326 26404
STARLINK-35392          
1 65823U 25221A   26078.19356173  .00022564  00000+0  77162-3 0  9998
2 65823  53.1586  44.5433 0001171  74.9073 285.2058 15.30201327 27538
STARLINK-35281          
1 65824U 25221B   26078.19672323  .00021149  00000+0  72454-3 0  9994
2 65824  53.1587  44.5597 0001297  59.4496 300.6633 15.30182451 27534
STARLINK-35397          
1 65825U 25221C   26078.29675224  .00017251  00000+0  59326-3 0  9991
2 65825  53.1630  43.7657 0001185  89.3518 270.7619 15.30196907 27559
STARLINK-35381          
1 65826U 25221D   26078.28303155  .00007239  00000+0  25630-3 0  9998
2 65826  53.1614  43.6770 0001231  98.6640 261.4500 15.30201171 27554
