[{"OBJECT_NAME":"STARLINK-35286","OBJECT_ID":"2025-218N","EPOCH":"2026-03-19T04:13:25.502304","MEAN_MOTION":15.05656255,"ECCENTRICITY":0.00016816,"INCLINATION":97.6033,"RA_OF_ASC_NODE":302.2474,"ARG_OF_PERICENTER":96.6821,"MEAN_ANOMALY":263.4598,"EPHEMERIS_TYPE":0,"CLASSIFICATION_TYPE":"U","NORAD_CAT_ID":65803,"ELEMENT_SET_NO":999,"REV_AT_EPOCH":2639,"BSTAR":0.00026776231,"MEAN_MOTION_DOT":3.806e-5,"MEAN_MOTION_DDOT":0},{"OBJECT_NAME":"STARLINK-35266","OBJECT_ID":"2025-218P","EPOCH":"2026-03-19T04:05:27.527136","MEAN_MOTION":15.05660497,"ECCENTRICITY":0.00018233,"INCLINATION":97.6022,"RA_OF_ASC_NODE":302.2569,"ARG_OF_PERICENTER":83.5793,"MEAN_ANOMALY":276.5641,"EPHEMERIS_TYPE":0,"CLASSIFICATION_TYPE":"U","NORAD_CAT_ID":65804,"ELEMENT_SET_NO":999,"REV_AT_EPOCH":2639,"BSTAR":0.00038687736,"MEAN_MOTION_DOT":5.527e-5,"MEAN_MOTION_DDOT":0},{"OBJECT_NAME":"STARLINK-35273","OBJECT_ID":"2025-218Q","EPOCH":"2026-03-19T04:01:27.959808","MEAN_MOTION":15.05653754,"ECCENTRICITY":0.00016391,"INCLINATION":97.6026,"RA_OF_ASC_NODE":302.2604,"ARG_OF_PERICENTER":90.5351,"MEAN_ANOMALY":269.6064,"EPHEMERIS_TYPE":0,"CLASSIFICATION_TYPE":"U","NORAD_CAT_ID":65805,"ELEMENT_SET_NO":999,"REV_AT_EPOCH":2639,"BSTAR":0.00020120341,"MEAN_MOTION_DOT":2.844e-5,"MEAN_MOTION_DDOT":0},{"OBJECT_NAME":"STARLINK-35047","OBJECT_ID":"2025-218R","EPOCH":"2026-03-19T03:41:32.239968","MEAN_MOTION":15.05654746,"ECCENTRICITY":0.00023962,"INCLINATION":97.6031,"RA_OF_ASC_NODE":302.2802,"ARG_OF_PERICENTER":90.1386,"MEAN_ANOMALY":270.0116,"EPHEMERIS_TYPE":0,"CLASSIFICATION_TYPE":"U","NORAD_CAT_ID":65806,"ELEMENT_SET_NO":999,"REV_AT_EPOCH":2639,"BSTAR":0.00022469457,"MEAN_MOTION_DOT":3.183e-5,"MEAN_MOTION_DDOT":0},{"OBJECT_NAME":"STARLINK-35285","OBJECT_ID":"2025-218S","EPOCH":"2026-03-19T03:49:30.545184","MEAN_MOTION":15.05654854,"ECCENTRICITY":0.00020949,"INCLINATION":97.6025,"RA_OF_ASC_NODE":302.2723,"ARG_OF_PERICENTER":86.1751,"MEAN_ANOMALY":273.9715,"EPHEMERIS_TYPE":0,"CLASSIFICATION_TYPE":"U","NORAD_CAT_ID":65807,"ELEMENT_SET_NO":999,"REV_AT_EPOCH":2639,"BSTAR":0.00026994068,"MEAN_MOTION_DOT":3.837e-5,"MEAN_MOTION_DDOT":0},{"OBJECT_NAME":"STARLINK-34580","OBJECT_ID":"2025-218T","EPOCH":"2026-03-19T05:13:14.814048","MEAN_MOTION":15.05654135,"ECCENTRICITY":0.00019798,"INCLINATION":97.6031,"RA_OF_ASC_NODE":302.3493,"ARG_OF_PERICENTER":83.4398,"MEAN_ANOMALY":276.7054,"EPHEMERIS_TYPE":0,"CLASSIFICATION_TYPE":"U","NORAD_CAT_ID":65808,"ELEMENT_SET_NO":999,"REV_AT_EPOCH":2640,"BSTAR":0.0001973576,"MEAN_MOTION_DOT":2.788e-5,"MEAN_MOTION_DDOT":0},{"OBJECT_NAME":"STARLINK-35289","OBJECT_ID":"2025-218U","EPOCH":"2026-03-19T05:01:17.370048","MEAN_MOTION":15.05654079,"ECCENTRICITY":0.00025458,"INCLINATION":97.6029,"RA_OF_ASC_NODE":302.3608,"ARG_OF_PERICENTER":87.892,"MEAN_ANOMALY":272.2599,"EPHEMERIS_TYPE":0,"CLASSIFICATION_TYPE":"U","NORAD_CAT_ID":65809,"ELEMENT_SET_NO":999,"REV_AT_EPOCH":2640,"BSTAR":0.00021854722,"MEAN_MOTION_DOT":3.094e-5,"MEAN_MOTION_DDOT":0},{"OBJECT_NAME":"STARLINK-35268","OBJECT_ID":"2025-218V","EPOCH":"2026-03-19T04:49:20.000352","MEAN_MOTION":15.05645174,"ECCENTRICITY":0.00024463,"INCLINATION":97.6026,"RA_OF_ASC_NODE":302.3719,"ARG_OF_PERICENTER":83.0481,"MEAN_ANOMALY":277.1024,"EPHEMERIS_TYPE":0,"CLASSIFICATION_TYPE":"U","NORAD_CAT_ID":65810,"ELEMENT_SET_NO":999,"REV_AT_EPOCH":2640,"BSTAR":0.00030643583,"MEAN_MOTION_DOT":4.363e-5,"MEAN_MOTION_DDOT":0},{"OBJECT_NAME":"STARLINK-35224","OBJECT_ID":"2025-218W","EPOCH":"2026-03-19T04:53:18.736512","MEAN_MOTION":15.05649798,"ECCENTRICITY":0.00033178,"INCLINATION":97.6025,"RA_OF_ASC_NODE":302.3676,"ARG_OF_PERICENTER":87.1288,"MEAN_ANOMALY":273.0318,"EPHEMERIS_TYPE":0,"CLASSIFICATION_TYPE":"U","NORAD_CAT_ID":65811,"ELEMENT_SET_NO":999,"REV_AT_EPOCH":2640,"BSTAR":8.8509404e-5,"MEAN_MOTION_DOT":1.217e-5,"MEAN_MOTION_DDOT":0},{"OBJECT_NAME":"STARLINK-35271","OBJECT_ID":"2025-218X","EPOCH":"2026-03-19T04:37:21.964512","MEAN_MOTION":15.05653088,"ECCENTRICITY":0.00018107,"INCLINATION":97.6013,"RA_OF_ASC_NODE":302.3825,"ARG_OF_PERICENTER":87.2585,"MEAN_ANOMALY":272.8849,"EPHEMERIS_TYPE":0,"CLASSIFICATION_TYPE":"U","NORAD_CAT_ID":65812,"ELEMENT_SET_NO":999,"REV_AT_EPOCH":2640,"BSTAR":0.00018838733,"MEAN_MOTION_DOT":2.659e-5,"MEAN_MOTION_DDOT":0},{"OBJECT_NAME":"STARLINK-35215","OBJECT_ID":"2025-218Y","EPOCH":"2026-03-19T04:29:22.752096","MEAN_MOTION":15.05649462,"ECCENTRICITY":0.00018169,"INCLINATION":97.601,"RA_OF_ASC_NODE":302.389,"ARG_OF_PERICENTER":87.7895,"MEAN_ANOMALY":272.354,"EPHEMERIS_TYPE":0,"CLASSIFICATION_TYPE":"U","NORAD_CAT_ID":65813,"ELEMENT_SET_NO":999,"REV_AT_EPOCH":2640,"BSTAR":-8.0581329e-5,"MEAN_MOTION_DOT":-1.223e-5,"MEAN_MOTION_DDOT":0},{"OBJECT_NAME":"STARLINK-35157","OBJECT_ID":"2025-218Z","EPOCH":"2026-03-19T04:25:25.203936","MEAN_MOTION":15.05604326,"ECCENTRICITY":0.00011941,"INCLINATION":97.6009,"RA_OF_ASC_NODE":302.393,"ARG_OF_PERICENTER":92.0947,"MEAN_ANOMALY":268.0416,"EPHEMERIS_TYPE":0,"CLASSIFICATION_TYPE":"U","NORAD_CAT_ID":65814,"ELEMENT_SET_NO":999,"REV_AT_EPOCH":2640,"BSTAR":-0.00050843966,"MEAN_MOTION_DOT":-7.38e-5,"MEAN_MOTION_DDOT":0},{"OBJECT_NAME":"STARLINK-35392","OBJECT_ID":"2025-221A","EPOCH":"2026-03-19T04:38:43.733472","MEAN_MOTION":15.30201327,"ECCENTRICITY":0.00011711,"INCLINATION":53.1586,"RA_OF_ASC_NODE":44.5433,"ARG_OF_PERICENTER":74.9073,"MEAN_ANOMALY":285.2058,"EPHEMERIS_TYPE":0,"CLASSIFICATION_TYPE":"U","NORAD_CAT_ID":65823,"ELEMENT_SET_NO":999,"REV_AT_EPOCH":2753,"BSTAR":0.00077162327,"MEAN_MOTION_DOT":0.00022564,"MEAN_MOTION_DDOT":0},{"OBJECT_NAME":"STARLINK-35281","OBJECT_ID":"2025-221B","EPOCH":"2026-03-19T04:43:16.887072","MEAN_MOTION":15.30182451,"ECCENTRICITY":0.00012975,"INCLINATION":53.1587,"RA_OF_ASC_NODE":44.5597,"ARG_OF_PERICENTER":59.4496,"MEAN_ANOMALY":300.6633,"EPHEMERIS_TYPE":0,"CLASSIFICATION_TYPE":"U","NORAD_CAT_ID":65824,"ELEMENT_SET_NO":999,"REV_AT_EPOCH":2753,"BSTAR":0.00072454345,"MEAN_MOTION_DOT":0.00021149,"MEAN_MOTION_DDOT":0},{"OBJECT_NAME":"STARLINK-35397","OBJECT_ID":"2025-221C","EPOCH":"2026-03-19T07:07:19.393536","MEAN_MOTION":15.30196907,"ECCENTRICITY":0.00011855,"INCLINATION":53.163,"RA_OF_ASC_NODE":43.7657,"ARG_OF_PERICENTER":89.3518,"MEAN_ANOMALY":270.7619,"EPHEMERIS_TYPE":0,"CLASSIFICATION_TYPE":"U","NORAD_CAT_ID":65825,"ELEMENT_SET_NO":999,"REV_AT_EPOCH":2755,"BSTAR":0.00059325992,"MEAN_MOTION_DOT":0.00017251,"MEAN_MOTION_DDOT":0},{"OBJECT_NAME":"STARLINK-35381","OBJECT_ID":"2025-221D","EPOCH":"2026-03-19T06:47:33.925920","MEAN_MOTION":15.30201171,"ECCENTRICITY":0.00012312,"INCLINATION":53.1614,"RA_OF_ASC_NODE":43.677,"ARG_OF_PERICENTER":98.664,"MEAN_ANOMALY":261.45,"EPHEMERIS_TYPE":0,"CLASSIFICATION_TYPE":"U","NORAD_CAT_ID":65826,"ELEMENT_SET_NO":999,"REV_AT_EPOCH":2755,"BSTAR":0.00025629841,"MEAN_MOTION_DOT":7.239e-5,"MEAN_MOTION_DDOT":0}]
